start=new Date('2021-10-25T00:00:00.000Z').valueOf();
sats=[{"OBJECT_TYPE":"PAYLOAD","MEAN_MOTION_DDOT":"0.0000000000000","SITE":"AFETR","FILE":"3182768","DECAY_DATE":null,"REF_FRAME":"TEME","RA_OF_ASC_NODE":"80.2596","SEMIMAJOR_AXIS":"6925.364","ELEMENT_SET_NO":"999","ECCENTRICITY":"0.00014900","INCLINATION":"53.0569","OBJECT_NAME":"STARLINK-2726","TLE_LINE1":"1 48662U 21044AA  21297.81367598 -.00000706  00000-0 -28487-4 0  9993","RCS_SIZE":"LARGE","PERIOD":"95.592","NORAD_CAT_ID":"48662","PERIAPSIS":"546.197","REV_AT_EPOCH":"2316","EPOCH":"2021-10-24T19:31:41.604672","MEAN_MOTION":"15.06394898","TIME_SYSTEM":"UTC","MEAN_MOTION_DOT":"-0.00000706","ARG_OF_PERICENTER":"93.1558","GP_ID":"188107314","MEAN_ANOMALY":"266.9601","COUNTRY_CODE":"US","CLASSIFICATION_TYPE":"U","TLE_LINE2":"2 48662  53.0569  80.2596 0001490  93.1558 266.9601 15.06394898 23166","MEAN_ELEMENT_THEORY":"SGP4","OBJECT_ID":"2021-044AA","EPHEMERIS_TYPE":"0","CENTER_NAME":"EARTH","APOAPSIS":"548.261","BSTAR":"-0.00002848700000","LAUNCH_DATE":"2021-05-26"},{"OBJECT_ID":"2021-044AB","MEAN_ELEMENT_THEORY":"SGP4","TLE_LINE2":"2 48663  53.0556  80.8684 0001538  95.8223 264.2942 15.06405591 23148","CENTER_NAME":"EARTH","EPHEMERIS_TYPE":"0","TIME_SYSTEM":"UTC","COUNTRY_CODE":"US","GP_ID":"188107091","CLASSIFICATION_TYPE":"U","MEAN_ANOMALY":"264.2942","ARG_OF_PERICENTER":"95.8223","MEAN_MOTION_DOT":"0.00001185","LAUNCH_DATE":"2021-05-26","APOAPSIS":"548.262","BSTAR":"0.00009842600000","REV_AT_EPOCH":"2314","MEAN_MOTION":"15.06405591","EPOCH":"2021-10-24T16:15:18.178272","TLE_LINE1":"1 48663U 21044AB  21297.67729373  .00001185  00000-0  98426-4 0  9991","INCLINATION":"53.0556","OBJECT_NAME":"STARLINK-2667","NORAD_CAT_ID":"48663","PERIOD":"95.592","PERIAPSIS":"546.131","RCS_SIZE":"LARGE","OBJECT_TYPE":"PAYLOAD","RA_OF_ASC_NODE":"80.8684","SEMIMAJOR_AXIS":"6925.331","ELEMENT_SET_NO":"999","ECCENTRICITY":"0.00015380","SITE":"AFETR","MEAN_MOTION_DDOT":"0.0000000000000","DECAY_DATE":null,"REF_FRAME":"TEME","FILE":"3182768"},{"TIME_SYSTEM":"UTC","MEAN_MOTION_DOT":"0.00001121","ARG_OF_PERICENTER":"93.4243","CLASSIFICATION_TYPE":"U","GP_ID":"188106867","COUNTRY_CODE":"US","MEAN_ANOMALY":"266.6919","TLE_LINE2":"2 48664  53.0566  80.2938 0001510  93.4243 266.6919 15.06406341 23168","MEAN_ELEMENT_THEORY":"SGP4","OBJECT_ID":"2021-044AC","EPHEMERIS_TYPE":"0","CENTER_NAME":"EARTH","APOAPSIS":"548.240","BSTAR":"0.00009413100000","LAUNCH_DATE":"2021-05-26","REV_AT_EPOCH":"2316","EPOCH":"2021-10-24T19:21:04.186944","MEAN_MOTION":"15.06406341","INCLINATION":"53.0566","OBJECT_NAME":"STARLINK-2709","TLE_LINE1":"1 48664U 21055E   21297.80629846  .00001121  00000-0  94131-4 0  9992","RCS_SIZE":"LARGE","PERIOD":"95.592","NORAD_CAT_ID":"48664","PERIAPSIS":"546.148","OBJECT_TYPE":"PAYLOAD","MEAN_MOTION_DDOT":"0.0000000000000","SITE":"AFETR","FILE":"3182768","DECAY_DATE":null,"REF_FRAME":"TEME","SEMIMAJOR_AXIS":"6925.329","RA_OF_ASC_NODE":"80.2938","ELEMENT_SET_NO":"999","ECCENTRICITY":"0.00015100"},{"MEAN_MOTION":"15.06397093","EPOCH":"2021-10-24T19:40:56.519040","REV_AT_EPOCH":"2316","LAUNCH_DATE":"2021-05-26","APOAPSIS":"548.219","BSTAR":"-0.00002500600000","TLE_LINE2":"2 48665  53.0565  80.2314 0001439  90.0909 270.0245 15.06397093 23162","OBJECT_ID":"2021-044AD","MEAN_ELEMENT_THEORY":"SGP4","EPHEMERIS_TYPE":"0","CENTER_NAME":"EARTH","TIME_SYSTEM":"UTC","MEAN_MOTION_DOT":"-0.00000654","ARG_OF_PERICENTER":"90.0909","CLASSIFICATION_TYPE":"U","GP_ID":"188106980","COUNTRY_CODE":"US","MEAN_ANOMALY":"270.0245","SEMIMAJOR_AXIS":"6925.357","ELEMENT_SET_NO":"999","RA_OF_ASC_NODE":"80.2314","ECCENTRICITY":"0.00014390","MEAN_MOTION_DDOT":"0.0000000000000","SITE":"AFETR","FILE":"3182768","REF_FRAME":"TEME","DECAY_DATE":null,"OBJECT_TYPE":"PAYLOAD","PERIOD":"95.592","NORAD_CAT_ID":"48665","PERIAPSIS":"546.226","RCS_SIZE":"LARGE","TLE_LINE1":"1 48665U 21044AD  21297.82009860 -.00000654  00000-0 -25006-4 0  9998","INCLINATION":"53.0565","OBJECT_NAME":"STARLINK-2653"},{"LAUNCH_DATE":"2021-05-26","APOAPSIS":"548.298","BSTAR":"-0.00002653500000","TLE_LINE2":"2 48666  53.0553  80.3817 0001563  95.5482 264.5685 15.06399244 23158","OBJECT_ID":"2021-044AE","MEAN_ELEMENT_THEORY":"SGP4","EPHEMERIS_TYPE":"0","CENTER_NAME":"EARTH","TIME_SYSTEM":"UTC","ARG_OF_PERICENTER":"95.5482","MEAN_MOTION_DOT":"-0.00000677","GP_ID":"188107424","COUNTRY_CODE":"US","CLASSIFICATION_TYPE":"U","MEAN_ANOMALY":"264.5685","MEAN_MOTION":"15.06399244","EPOCH":"2021-10-24T18:53:10.827168","REV_AT_EPOCH":"2315","PERIOD":"95.592","NORAD_CAT_ID":"48666","PERIAPSIS":"546.133","RCS_SIZE":"LARGE","TLE_LINE1":"1 48666U 21044AE  21297.78693087 -.00000677  00000-0 -26535-4 0  9997","INCLINATION":"53.0553","OBJECT_NAME":"STARLINK-2666","SEMIMAJOR_AXIS":"6925.351","ELEMENT_SET_NO":"999","RA_OF_ASC_NODE":"80.3817","ECCENTRICITY":"0.00015630","MEAN_MOTION_DDOT":"0.0000000000000","SITE":"AFETR","FILE":"3182768","DECAY_DATE":null,"REF_FRAME":"TEME","OBJECT_TYPE":"PAYLOAD"},{"RCS_SIZE":"LARGE","PERIAPSIS":"546.014","NORAD_CAT_ID":"48667","PERIOD":"95.592","OBJECT_NAME":"STARLINK-2735","INCLINATION":"53.0558","TLE_LINE1":"1 48667U 21044AF  21297.80261464  .00001421  00000-0  11426-3 0  9999","DECAY_DATE":null,"REF_FRAME":"TEME","FILE":"3182768","SITE":"AFETR","MEAN_MOTION_DDOT":"0.0000000000000","ECCENTRICITY":"0.00017040","SEMIMAJOR_AXIS":"6925.329","RA_OF_ASC_NODE":"80.3047","ELEMENT_SET_NO":"999","OBJECT_TYPE":"PAYLOAD","BSTAR":"0.00011426000000","APOAPSIS":"548.374","LAUNCH_DATE":"2021-05-26","CLASSIFICATION_TYPE":"U","GP_ID":"188106756","COUNTRY_CODE":"US","MEAN_ANOMALY":"259.4489","ARG_OF_PERICENTER":"100.6692","MEAN_MOTION_DOT":"0.00001421","TIME_SYSTEM":"UTC","CENTER_NAME":"EARTH","EPHEMERIS_TYPE":"0","OBJECT_ID":"2021-044AF","MEAN_ELEMENT_THEORY":"SGP4","TLE_LINE2":"2 48667  53.0558  80.3047 0001704 100.6692 259.4489 15.06406312 23168","EPOCH":"2021-10-24T19:15:45.904896","MEAN_MOTION":"15.06406312","REV_AT_EPOCH":"2316"},{"CENTER_NAME":"EARTH","EPHEMERIS_TYPE":"0","MEAN_ELEMENT_THEORY":"SGP4","OBJECT_ID":"2021-044AG","TLE_LINE2":"2 48668  53.0559  80.3249 0001455  96.0142 264.1013 15.06406417 23167","GP_ID":"188107203","CLASSIFICATION_TYPE":"U","COUNTRY_CODE":"US","MEAN_ANOMALY":"264.1013","ARG_OF_PERICENTER":"96.0142","MEAN_MOTION_DOT":"-0.00000697","TIME_SYSTEM":"UTC","LAUNCH_DATE":"2021-05-26","BSTAR":"-0.00002787300000","APOAPSIS":"548.202","REV_AT_EPOCH":"2316","MEAN_MOTION":"15.06406417","EPOCH":"2021-10-24T19:10:27.775776","TLE_LINE1":"1 48668U 21044AG  21297.79893259 -.00000697  00000-0 -27873-4 0  9991","OBJECT_NAME":"STARLINK-2738","INCLINATION":"53.0559","PERIAPSIS":"546.186","NORAD_CAT_ID":"48668","PERIOD":"95.592","RCS_SIZE":"LARGE","OBJECT_TYPE":"PAYLOAD","ECCENTRICITY":"0.00014550","SEMIMAJOR_AXIS":"6925.329","RA_OF_ASC_NODE":"80.3249","ELEMENT_SET_NO":"999","REF_FRAME":"TEME","DECAY_DATE":null,"FILE":"3182768","SITE":"AFETR","MEAN_MOTION_DDOT":"0.0000000000000"},{"INCLINATION":"53.0521","OBJECT_NAME":"STARLINK-2707","TLE_LINE1":"1 48669U 21044AH  21297.79524564  .00001484  00000-0  11851-3 0  9993","RCS_SIZE":"LARGE","NORAD_CAT_ID":"48669","PERIOD":"95.592","PERIAPSIS":"546.282","OBJECT_TYPE":"PAYLOAD","SITE":"AFETR","MEAN_MOTION_DDOT":"0.0000000000000","REF_FRAME":"TEME","DECAY_DATE":null,"FILE":"3182768","SEMIMAJOR_AXIS":"6925.352","ELEMENT_SET_NO":"999","RA_OF_ASC_NODE":"80.3628","ECCENTRICITY":"0.00013500","TIME_SYSTEM":"UTC","COUNTRY_CODE":"US","GP_ID":"188106645","CLASSIFICATION_TYPE":"U","MEAN_ANOMALY":"265.1827","ARG_OF_PERICENTER":"94.9316","MEAN_MOTION_DOT":"0.00001484","OBJECT_ID":"2021-044AH","MEAN_ELEMENT_THEORY":"SGP4","TLE_LINE2":"2 48669  53.0521  80.3628 0001350  94.9316 265.1827 15.06398892 23152","CENTER_NAME":"EARTH","EPHEMERIS_TYPE":"0","APOAPSIS":"548.152","BSTAR":"0.00011851000000","LAUNCH_DATE":"2021-05-26","REV_AT_EPOCH":"2315","EPOCH":"2021-10-24T19:05:09.223296","MEAN_MOTION":"15.06398892"},{"TLE_LINE1":"1 48670U 21044AJ  21297.85791078  .00001278  00000-0  10466-3 0  9990","OBJECT_NAME":"STARLINK-2763","INCLINATION":"53.0521","PERIAPSIS":"546.134","PERIOD":"95.592","NORAD_CAT_ID":"48670","RCS_SIZE":"LARGE","OBJECT_TYPE":"PAYLOAD","ECCENTRICITY":"0.00015490","SEMIMAJOR_AXIS":"6925.342","RA_OF_ASC_NODE":"80.0807","ELEMENT_SET_NO":"999","FILE":"3182768","DECAY_DATE":null,"REF_FRAME":"TEME","MEAN_MOTION_DDOT":"0.0000000000000","SITE":"AFETR","EPHEMERIS_TYPE":"0","CENTER_NAME":"EARTH","TLE_LINE2":"2 48670  53.0521  80.0807 0001549  97.4449 262.6716 15.06402097 23168","OBJECT_ID":"2021-044AJ","MEAN_ELEMENT_THEORY":"SGP4","ARG_OF_PERICENTER":"97.4449","MEAN_MOTION_DOT":"0.00001278","CLASSIFICATION_TYPE":"U","GP_ID":"188107315","COUNTRY_CODE":"US","MEAN_ANOMALY":"262.6716","TIME_SYSTEM":"UTC","LAUNCH_DATE":"2021-05-26","BSTAR":"0.00010466000000","APOAPSIS":"548.280","REV_AT_EPOCH":"2316","MEAN_MOTION":"15.06402097","EPOCH":"2021-10-24T20:35:23.491392"},{"REV_AT_EPOCH":"2315","EPOCH":"2021-10-24T18:54:32.406048","MEAN_MOTION":"15.06400714","COUNTRY_CODE":"US","GP_ID":"188107092","CLASSIFICATION_TYPE":"U","MEAN_ANOMALY":"267.5575","MEAN_MOTION_DOT":"-0.00000315","ARG_OF_PERICENTER":"92.5562","TIME_SYSTEM":"UTC","CENTER_NAME":"EARTH","EPHEMERIS_TYPE":"0","OBJECT_ID":"2021-044AK","MEAN_ELEMENT_THEORY":"SGP4","TLE_LINE2":"2 48671  53.0559  80.3781 0001294  92.5562 267.5575 15.06400714 23153","BSTAR":"-0.00000227340000","APOAPSIS":"548.108","LAUNCH_DATE":"2021-05-26","OBJECT_TYPE":"PAYLOAD","DECAY_DATE":null,"REF_FRAME":"TEME","FILE":"3182768","SITE":"AFETR","MEAN_MOTION_DDOT":"0.0000000000000","ECCENTRICITY":"0.00012940","SEMIMAJOR_AXIS":"6925.346","RA_OF_ASC_NODE":"80.3781","ELEMENT_SET_NO":"999","OBJECT_NAME":"STARLINK-2745","INCLINATION":"53.0559","TLE_LINE1":"1 48671U 21044AK  21297.78787507 -.00000315  00000-0 -22734-5 0  9991","RCS_SIZE":"LARGE","PERIAPSIS":"546.315","NORAD_CAT_ID":"48671","PERIOD":"95.592"}];
